[{"OBJECT_NAME":"SPACEBEE-63","OBJECT_ID":"2021-006AF","EPOCH":"2022-08-18T14:03:55.432800","MEAN_MOTION":15.1565395,"ECCENTRICITY":0.0007477,"INCLINATION":97.4388,"RA_OF_ASC_NODE":287.7517,"ARG_OF_PERICENTER":80.596,"MEAN_ANOMALY":279.6118,"EPHEMERIS_TYPE":0,"CLASSIFICATION_TYPE":"U","NORAD_CAT_ID":47442,"ELEMENT_SET_NO":999,"REV_AT_EPOCH":8662,"BSTAR":0.00042327,"MEAN_MOTION_DOT":7.993e-5,"MEAN_MOTION_DDOT":0},{"OBJECT_NAME":"SPACEBEE-50","OBJECT_ID":"2021-006AG","EPOCH":"2022-08-18T10:23:10.263552","MEAN_MOTION":15.20918906,"ECCENTRICITY":0.0006485,"INCLINATION":97.4432,"RA_OF_ASC_NODE":289.2168,"ARG_OF_PERICENTER":78.846,"MEAN_ANOMALY":281.3504,"EPHEMERIS_TYPE":0,"CLASSIFICATION_TYPE":"U","NORAD_CAT_ID":47443,"ELEMENT_SET_NO":999,"REV_AT_EPOCH":8669,"BSTAR":0.00090163,"MEAN_MOTION_DOT":0.00019925,"MEAN_MOTION_DDOT":0},{"OBJECT_NAME":"SPACEBEE-51","OBJECT_ID":"2021-006AH","EPOCH":"2022-08-18T14:44:08.539008","MEAN_MOTION":15.23786309,"ECCENTRICITY":0.0005902,"INCLINATION":97.4362,"RA_OF_ASC_NODE":289.491,"ARG_OF_PERICENTER":81.6181,"MEAN_ANOMALY":278.5725,"EPHEMERIS_TYPE":0,"CLASSIFICATION_TYPE":"U","NORAD_CAT_ID":47444,"ELEMENT_SET_NO":999,"REV_AT_EPOCH":8676,"BSTAR":0.0011194,"MEAN_MOTION_DOT":0.00026956,"MEAN_MOTION_DDOT":0},{"OBJECT_NAME":"SPACEBEE-48","OBJECT_ID":"2021-006AL","EPOCH":"2022-08-19T02:20:08.408256","MEAN_MOTION":15.26092735,"ECCENTRICITY":0.0009144,"INCLINATION":97.4346,"RA_OF_ASC_NODE":291.1792,"ARG_OF_PERICENTER":63.4051,"MEAN_ANOMALY":296.8123,"EPHEMERIS_TYPE":0,"CLASSIFICATION_TYPE":"U","NORAD_CAT_ID":47447,"ELEMENT_SET_NO":999,"REV_AT_EPOCH":8692,"BSTAR":0.0015149,"MEAN_MOTION_DOT":0.00039199,"MEAN_MOTION_DDOT":0},{"OBJECT_NAME":"SPACEBEE-40","OBJECT_ID":"2021-006AN","EPOCH":"2022-08-18T03:10:10.277760","MEAN_MOTION":15.24556441,"ECCENTRICITY":0.0009678,"INCLINATION":97.4348,"RA_OF_ASC_NODE":289.8739,"ARG_OF_PERICENTER":66.292,"MEAN_ANOMALY":293.9332,"EPHEMERIS_TYPE":0,"CLASSIFICATION_TYPE":"U","NORAD_CAT_ID":47449,"ELEMENT_SET_NO":999,"REV_AT_EPOCH":8675,"BSTAR":0.0011475,"MEAN_MOTION_DOT":0.00028303,"MEAN_MOTION_DDOT":0},{"OBJECT_NAME":"SPACEBEE-41","OBJECT_ID":"2021-006AQ","EPOCH":"2022-08-18T09:50:44.996064","MEAN_MOTION":15.24474688,"ECCENTRICITY":0.000955,"INCLINATION":97.4352,"RA_OF_ASC_NODE":290.1529,"ARG_OF_PERICENTER":66.6496,"MEAN_ANOMALY":293.5745,"EPHEMERIS_TYPE":0,"CLASSIFICATION_TYPE":"U","NORAD_CAT_ID":47451,"ELEMENT_SET_NO":999,"REV_AT_EPOCH":8679,"BSTAR":0.0010487,"MEAN_MOTION_DOT":0.00025787,"MEAN_MOTION_DDOT":0},{"OBJECT_NAME":"SPACEBEE-42","OBJECT_ID":"2021-006AU","EPOCH":"2022-08-19T04:03:26.304480","MEAN_MOTION":15.24279068,"ECCENTRICITY":0.0009464,"INCLINATION":97.4357,"RA_OF_ASC_NODE":290.8465,"ARG_OF_PERICENTER":63.8973,"MEAN_ANOMALY":296.3237,"EPHEMERIS_TYPE":0,"CLASSIFICATION_TYPE":"U","NORAD_CAT_ID":47455,"ELEMENT_SET_NO":999,"REV_AT_EPOCH":8690,"BSTAR":0.0011307,"MEAN_MOTION_DOT":0.00027654,"MEAN_MOTION_DDOT":0},{"OBJECT_NAME":"SPACEBEE-55","OBJECT_ID":"2021-006AY","EPOCH":"2022-08-18T21:09:51.125472","MEAN_MOTION":15.17215017,"ECCENTRICITY":0.0012623,"INCLINATION":97.431,"RA_OF_ASC_NODE":288.5789,"ARG_OF_PERICENTER":72.5618,"MEAN_ANOMALY":287.6994,"EPHEMERIS_TYPE":0,"CLASSIFICATION_TYPE":"U","NORAD_CAT_ID":47459,"ELEMENT_SET_NO":999,"REV_AT_EPOCH":8674,"BSTAR":0.00050263,"MEAN_MOTION_DOT":9.952e-5,"MEAN_MOTION_DDOT":0},{"OBJECT_NAME":"SPACEBEE-54","OBJECT_ID":"2021-006AZ","EPOCH":"2022-08-18T03:03:03.663072","MEAN_MOTION":15.24192831,"ECCENTRICITY":0.0009491,"INCLINATION":97.4357,"RA_OF_ASC_NODE":289.8243,"ARG_OF_PERICENTER":67.9299,"MEAN_ANOMALY":292.2946,"EPHEMERIS_TYPE":0,"CLASSIFICATION_TYPE":"U","NORAD_CAT_ID":47460,"ELEMENT_SET_NO":999,"REV_AT_EPOCH":8674,"BSTAR":0.00122,"MEAN_MOTION_DOT":0.00029776,"MEAN_MOTION_DDOT":0},{"OBJECT_NAME":"SPACEBEE-58","OBJECT_ID":"2021-006BD","EPOCH":"2022-08-19T03:50:30.067008","MEAN_MOTION":15.25651387,"ECCENTRICITY":0.0011604,"INCLINATION":97.4395,"RA_OF_ASC_NODE":292.2269,"ARG_OF_PERICENTER":59.2675,"MEAN_ANOMALY":300.9704,"EPHEMERIS_TYPE":0,"CLASSIFICATION_TYPE":"U","NORAD_CAT_ID":47464,"ELEMENT_SET_NO":999,"REV_AT_EPOCH":8697,"BSTAR":0.0011174,"MEAN_MOTION_DOT":0.00028493,"MEAN_MOTION_DDOT":0},{"OBJECT_NAME":"SPACEBEE-57","OBJECT_ID":"2021-006BE","EPOCH":"2022-08-18T03:11:56.667264","MEAN_MOTION":15.15601716,"ECCENTRICITY":0.0006998,"INCLINATION":97.4331,"RA_OF_ASC_NODE":286.8569,"ARG_OF_PERICENTER":87.8573,"MEAN_ANOMALY":272.346,"EPHEMERIS_TYPE":0,"CLASSIFICATION_TYPE":"U","NORAD_CAT_ID":47465,"ELEMENT_SET_NO":999,"REV_AT_EPOCH":8655,"BSTAR":0.00040852,"MEAN_MOTION_DOT":7.7e-5,"MEAN_MOTION_DDOT":0},{"OBJECT_NAME":"SPACEBEE-44","OBJECT_ID":"2021-006BF","EPOCH":"2022-08-18T10:07:07.811616","MEAN_MOTION":15.2213262,"ECCENTRICITY":0.0006531,"INCLINATION":97.4364,"RA_OF_ASC_NODE":289.0057,"ARG_OF_PERICENTER":79.6463,"MEAN_ANOMALY":280.5509,"EPHEMERIS_TYPE":0,"CLASSIFICATION_TYPE":"U","NORAD_CAT_ID":47466,"ELEMENT_SET_NO":999,"REV_AT_EPOCH":8671,"BSTAR":0.00099296,"MEAN_MOTION_DOT":0.00022753,"MEAN_MOTION_DDOT":0},{"OBJECT_NAME":"SPACEBEE-56","OBJECT_ID":"2021-006BH","EPOCH":"2022-08-18T03:25:31.715616","MEAN_MOTION":15.21634202,"ECCENTRICITY":0.0006731,"INCLINATION":97.437,"RA_OF_ASC_NODE":288.6431,"ARG_OF_PERICENTER":79.5712,"MEAN_ANOMALY":280.6282,"EPHEMERIS_TYPE":0,"CLASSIFICATION_TYPE":"U","NORAD_CAT_ID":47468,"ELEMENT_SET_NO":999,"REV_AT_EPOCH":8666,"BSTAR":0.00097267,"MEAN_MOTION_DOT":0.00021962,"MEAN_MOTION_DDOT":0},{"OBJECT_NAME":"SPACEBEE-45","OBJECT_ID":"2021-006BK","EPOCH":"2022-08-19T03:28:50.526336","MEAN_MOTION":15.22049986,"ECCENTRICITY":0.000673,"INCLINATION":97.4367,"RA_OF_ASC_NODE":289.7572,"ARG_OF_PERICENTER":77.501,"MEAN_ANOMALY":282.6979,"EPHEMERIS_TYPE":0,"CLASSIFICATION_TYPE":"U","NORAD_CAT_ID":47470,"ELEMENT_SET_NO":999,"REV_AT_EPOCH":8682,"BSTAR":0.00096787,"MEAN_MOTION_DOT":0.00022122,"MEAN_MOTION_DDOT":0},{"OBJECT_NAME":"SPACEBEE-43","OBJECT_ID":"2021-006BV","EPOCH":"2022-08-18T10:00:46.045440","MEAN_MOTION":15.2223269,"ECCENTRICITY":0.0006489,"INCLINATION":97.4362,"RA_OF_ASC_NODE":289.002,"ARG_OF_PERICENTER":78.8589,"MEAN_ANOMALY":281.3376,"EPHEMERIS_TYPE":0,"CLASSIFICATION_TYPE":"U","NORAD_CAT_ID":47480,"ELEMENT_SET_NO":999,"REV_AT_EPOCH":8671,"BSTAR":0.00099068,"MEAN_MOTION_DOT":0.00022768,"MEAN_MOTION_DDOT":0},{"OBJECT_NAME":"SPACEBEE-87","OBJECT_ID":"2021-015E","EPOCH":"2022-08-18T20:32:49.021152","MEAN_MOTION":15.3975081,"ECCENTRICITY":0.0007403,"INCLINATION":97.4117,"RA_OF_ASC_NODE":308.8556,"ARG_OF_PERICENTER":199.8932,"MEAN_ANOMALY":160.2026,"EPHEMERIS_TYPE":0,"CLASSIFICATION_TYPE":"U","NORAD_CAT_ID":47703,"ELEMENT_SET_NO":999,"REV_AT_EPOCH":8185,"BSTAR":0.0014621,"MEAN_MOTION_DOT":0.00058191,"MEAN_MOTION_DDOT":0},{"OBJECT_NAME":"SPACEBEE-86","OBJECT_ID":"2021-015F","EPOCH":"2022-08-19T04:04:03.865152","MEAN_MOTION":15.40691446,"ECCENTRICITY":0.0007753,"INCLINATION":97.4103,"RA_OF_ASC_NODE":309.3204,"ARG_OF_PERICENTER":195.6189,"MEAN_ANOMALY":164.4819,"EPHEMERIS_TYPE":0,"CLASSIFICATION_TYPE":"U","NORAD_CAT_ID":47704,"ELEMENT_SET_NO":999,"REV_AT_EPOCH":8189,"BSTAR":0.0014534,"MEAN_MOTION_DOT":0.00059677,"MEAN_MOTION_DDOT":0}]