SPACEBEE-63             
1 47442U 21006AF  22230.58605825  .00007993  00000+0  42327-3 0  9996
2 47442  97.4388 287.7517 0007477  80.5960 279.6118 15.15653950 86628
SPACEBEE-50             
1 47443U 21006AG  22230.43275768  .00019925  00000+0  90163-3 0  9999
2 47443  97.4432 289.2168 0006485  78.8460 281.3504 15.20918906 86698
SPACEBEE-51             
1 47444U 21006AH  22230.61398772  .00026956  00000+0  11194-2 0  9999
2 47444  97.4362 289.4910 0005902  81.6181 278.5725 15.23786309 86767
SPACEBEE-48             
1 47447U 21006AL  22231.09731954  .00039199  00000+0  15149-2 0  9995
2 47447  97.4346 291.1792 0009144  63.4051 296.8123 15.26092735 86925
SPACEBEE-40             
1 47449U 21006AN  22230.13206340  .00028303  00000+0  11475-2 0  9990
2 47449  97.4348 289.8739 0009678  66.2920 293.9332 15.24556441 86750
SPACEBEE-41             
1 47451U 21006AQ  22230.41024301  .00025787  00000+0  10487-2 0  9994
2 47451  97.4352 290.1529 0009550  66.6496 293.5745 15.24474688 86791
SPACEBEE-42             
1 47455U 21006AU  22231.16905445  .00027654  00000+0  11307-2 0  9995
2 47455  97.4357 290.8465 0009464  63.8973 296.3237 15.24279068 86904
SPACEBEE-55             
1 47459U 21006AY  22230.88184173  .00009952  00000+0  50263-3 0  9990
2 47459  97.4310 288.5789 0012623  72.5618 287.6994 15.17215017 86745
SPACEBEE-54             
1 47460U 21006AZ  22230.12712573  .00029776  00000+0  12200-2 0  9994
2 47460  97.4357 289.8243 0009491  67.9299 292.2946 15.24192831 86744
SPACEBEE-58             
1 47464U 21006BD  22231.16007022  .00028493  00000+0  11174-2 0  9993
2 47464  97.4395 292.2269 0011604  59.2675 300.9704 15.25651387 86978
SPACEBEE-57             
1 47465U 21006BE  22230.13329476  .00007700  00000+0  40852-3 0  9994
2 47465  97.4331 286.8569 0006998  87.8573 272.3460 15.15601716 86550
SPACEBEE-44             
1 47466U 21006BF  22230.42161819  .00022753  00000+0  99296-3 0  9993
2 47466  97.4364 289.0057 0006531  79.6463 280.5509 15.22132620 86718
SPACEBEE-56             
1 47468U 21006BH  22230.14272819  .00021962  00000+0  97267-3 0  9994
2 47468  97.4370 288.6431 0006731  79.5712 280.6282 15.21634202 86661
SPACEBEE-45             
1 47470U 21006BK  22231.14502924  .00022122  00000+0  96787-3 0  9996
2 47470  97.4367 289.7572 0006730  77.5010 282.6979 15.22049986 86829
SPACEBEE-43             
1 47480U 21006BV  22230.41719960  .00022768  00000+0  99068-3 0  9997
2 47480  97.4362 289.0020 0006489  78.8589 281.3376 15.22232690 86713
SPACEBEE-87             
1 47703U 21015E   22230.85612293  .00058191  00000+0  14621-2 0  9994
2 47703  97.4117 308.8556 0007403 199.8932 160.2026 15.39750810 81850
SPACEBEE-86             
1 47704U 21015F   22231.16948918  .00059677  00000+0  14534-2 0  9999
2 47704  97.4103 309.3204 0007753 195.6189 164.4819 15.40691446 81899
